{
    "links": {
        "self": "http://www.neowsapp.com/rest/v1/neo/54016318?api_key=iIulBulltgU6a56xZRHN4H3l9WmuAYTsLGpBGhQ2"
    },
    "id": "54016318",
    "neo_reference_id": "54016318",
    "name": "(2020 FK3)",
    "designation": "2020 FK3",
    "nasa_jpl_url": "http://ssd.jpl.nasa.gov/sbdb.cgi?sstr=54016318",
    "absolute_magnitude_h": 25.216,
    "estimated_diameter": {
        "kilometers": {
            "estimated_diameter_min": 0.0240632884,
            "estimated_diameter_max": 0.0538071487
        },
        "meters": {
            "estimated_diameter_min": 24.063288426,
            "estimated_diameter_max": 53.8071486828
        },
        "miles": {
            "estimated_diameter_min": 0.0149522296,
            "estimated_diameter_max": 0.0334342018
        },
        "feet": {
            "estimated_diameter_min": 78.9477991996,
            "estimated_diameter_max": 176.5326456843
        }
    },
    "is_potentially_hazardous_asteroid": false,
    "close_approach_data": [
        {
            "close_approach_date": "1996-03-04",
            "close_approach_date_full": "1996-Mar-04 20:02",
            "epoch_date_close_approach": 825969720000,
            "relative_velocity": {
                "kilometers_per_second": "21.4042119428",
                "kilometers_per_hour": "77055.1629942564",
                "miles_per_hour": "47879.0816949589"
            },
            "miss_distance": {
                "astronomical": "0.3998368578",
                "lunar": "155.5365376842",
                "kilometers": "59814742.274372886",
                "miles": "37167157.3853063868"
            },
            "orbiting_body": "Earth"
        },
        {
            "close_approach_date": "2020-04-03",
            "close_approach_date_full": "2020-Apr-03 20:58",
            "epoch_date_close_approach": 1585947480000,
            "relative_velocity": {
                "kilometers_per_second": "9.7044390478",
                "kilometers_per_hour": "34935.9805719247",
                "miles_per_hour": "21707.8597059273"
            },
            "miss_distance": {
                "astronomical": "0.0266877346",
                "lunar": "10.3815287594",
                "kilometers": "3992428.251285302",
                "miles": "2480779.8800570876"
            },
            "orbiting_body": "Earth"
        },
        {
            "close_approach_date": "2044-03-06",
            "close_approach_date_full": "2044-Mar-06 02:39",
            "epoch_date_close_approach": 2340844740000,
            "relative_velocity": {
                "kilometers_per_second": "20.9981380344",
                "kilometers_per_hour": "75593.2969237838",
                "miles_per_hour": "46970.7349691145"
            },
            "miss_distance": {
                "astronomical": "0.3854234262",
                "lunar": "149.9297127918",
                "kilometers": "57658523.607622194",
                "miles": "35827345.2337025172"
            },
            "orbiting_body": "Earth"
        },
        {
            "close_approach_date": "2052-06-26",
            "close_approach_date_full": "2052-Jun-26 09:54",
            "epoch_date_close_approach": 2603008440000,
            "relative_velocity": {
                "kilometers_per_second": "14.199956297",
                "kilometers_per_hour": "51119.84266915",
                "miles_per_hour": "31763.8822407282"
            },
            "miss_distance": {
                "astronomical": "0.0889630215",
                "lunar": "34.6066153635",
                "kilometers": "13308678.525164205",
                "miles": "8269629.367727829"
            },
            "orbiting_body": "Mars"
        }
    ],
    "orbital_data": {
        "orbit_id": "9",
        "orbit_determination_date": "2020-04-06 05:50:25",
        "first_observation_date": "2020-03-22",
        "last_observation_date": "2020-04-06",
        "data_arc_in_days": 15,
        "observations_used": 83,
        "orbit_uncertainty": "7",
        "minimum_orbit_intersection": ".0241605",
        "jupiter_tisserand_invariant": "3.756",
        "epoch_osculation": "2459000.5",
        "eccentricity": ".5050830715338436",
        "semi_major_axis": "1.921353926732238",
        "inclination": "2.596110071606176",
        "ascending_node_longitude": "164.732010303035",
        "orbital_period": "972.7684695087406",
        "perihelion_distance": ".950910583914708",
        "perihelion_argument": "64.54135707153409",
        "aphelion_distance": "2.891797269549769",
        "perihelion_time": "2458970.877891666319",
        "mean_anomaly": "10.96248422351801",
        "mean_motion": ".3700777844719866",
        "equinox": "J2000",
        "orbit_class": {
            "orbit_class_type": "APO",
            "orbit_class_description": "Near-Earth asteroid orbits which cross the Earth’s orbit similar to that of 1862 Apollo",
            "orbit_class_range": "a (semi-major axis) > 1.0 AU; q (perihelion) < 1.017 AU"
        }
    },
    "is_sentry_object": false
}